NORAD_CAT_ID,OBJECT_NAME,OBJECT_TYPE,EPOCH,MEAN_MOTION,ECCENTRICITY,INCLINATION,RA_OF_ASC_NODE,ARG_OF_PERICENTER,MEAN_ANOMALY,BSTAR,MEAN_MOTION_DOT,MEAN_MOTION_DDOT,TLE_LINE0,TLE_LINE1,TLE_LINE2,SEMIMAJOR_AXIS,PERIOD,APOGEE,PERIGEE,DECAYED
52615.0,STARLINK-4011,PAYLOAD,2023-10-31 19:31:02,15.08837411,0.0001584,53.2177,184.259,87.7518,272.3655,8.7267e-05,1.101e-05,0.0,0 STARLINK-4011,1 52615U 22052T   23304.81322206  .00001101  00000-0  87267-4 0  9993,2 52615  53.2177 184.2590 0001584  87.7518 272.3655 15.08837411 81343,6917.888,95.438,540.849,538.658,0.0
52615.0,STARLINK-4011,PAYLOAD,2023-10-31 22:41:48,15.08841925,0.0001542,53.2168,183.6634,90.5397,269.5771,0.00020387,2.958e-05,0.0,0 STARLINK-4011,1 52615U 22052T   23304.94570051  .00002958  00000-0  20387-3 0  9990,2 52615  53.2168 183.6634 0001542  90.5397 269.5771 15.08841925 80987,6917.875,95.437,540.806,538.673,0.0
52615.0,STARLINK-4011,PAYLOAD,2023-11-01 01:52:34,15.08845944,0.000164,53.2166,183.0668,92.8941,267.2239,0.00022117,3.234e-05,0.0,0 STARLINK-4011,1 52615U 22052T   23305.07817878  .00003234  00000-0  22117-3 0  9997,2 52615  53.2166 183.0668 0001640  92.8941 267.2239 15.08845944 81389,6917.862,95.437,540.862,538.593,0.0
52615.0,STARLINK-4011,PAYLOAD,2023-11-01 19:21:49,15.08840934,0.0001637,53.216,179.7943,95.0949,265.023,0.00018252,2.618e-05,0.0,0 STARLINK-4011,1 52615U 22052T   23305.80682181  .00002618  00000-0  18252-3 0  9995,2 52615  53.2160 179.7943 0001637  95.0949 265.0230 15.08840934 81493,6917.878,95.437,540.875,538.61,0.0
52615.0,STARLINK-4011,PAYLOAD,2023-11-01 22:32:35,15.08845124,0.000136,53.2162,179.2033,94.173,265.9418,0.00027488,4.09e-05,0.0,0 STARLINK-4011,1 52615U 22052T   23305.93929903  .00004090  00000-0  27488-3 0  9992,2 52615  53.2162 179.2033 0001360  94.1730 265.9418 15.08845124 81135,6917.865,95.437,540.671,538.789,0.0
52615.0,STARLINK-4011,PAYLOAD,2023-11-02 08:04:54,15.08845481,0.0001472,53.2157,177.4178,91.5494,268.5667,0.00019269,2.78e-05,0.0,0 STARLINK-4011,1 52615U 22052T   23306.33673837  .00002780  00000-0  19269-3 0  9991,2 52615  53.2157 177.4178 0001472  91.5494 268.5667 15.08845481 81198,6917.864,95.437,540.747,538.71,0.0
52615.0,STARLINK-4011,PAYLOAD,2023-11-02 19:12:36,15.08835403,0.0001327,53.2158,175.3344,86.2809,273.8335,-6.7004e-05,-1.354e-05,0.0,0 STARLINK-4011,1 52615U 22052T   23306.80042199 -.00001354  00000-0 -67004-4 0  9993,2 52615  53.2158 175.3344 0001327  86.2809 273.8335 15.08835403 81645,6917.894,95.438,540.677,538.841,0.0
52615.0,STARLINK-4011,PAYLOAD,2023-11-02 22:23:22,15.08842583,0.0001432,53.216,174.742,85.179,274.9365,6.3471e-05,7.22e-06,0.0,0 STARLINK-4011,1 52615U 22052T   23306.93290013  .00000722  00000-0  63471-4 0  9997,2 52615  53.2160 174.7420 0001432  85.1790 274.9365 15.08842583 81282,6917.872,95.437,540.728,538.747,0.0
52615.0,STARLINK-4011,PAYLOAD,2023-11-03 07:55:41,15.088402,0.0001381,53.2154,172.9572,82.7438,277.3711,3.1649e-05,2.16e-06,0.0,0 STARLINK-4011,1 52615U 22052T   23307.33034105  .00000216  00000-0  31649-4 0  9990,2 52615  53.2154 172.9572 0001381  82.7438 277.3711 15.08840200 81341,6917.88,95.438,540.7,538.789,0.0
52615.0,STARLINK-4011,PAYLOAD,2023-11-03 20:38:46,15.08843376,0.0001308,53.215,170.5784,81.5144,278.5996,8.5783e-05,1.078e-05,0.0,0 STARLINK-4011,1 52615U 22052T   23307.86026001  .00001078  00000-0  85783-4 0  9999,2 52615  53.2150 170.5784 0001308  81.5144 278.5996 15.08843376 81802,6917.87,95.437,540.64,538.83,0.0
52615.0,STARLINK-4011,PAYLOAD,2023-11-03 22:14:09,15.08845657,0.0001362,53.2155,170.2807,80.6457,279.4689,0.00014428,2.009e-05,0.0,0 STARLINK-4011,1 52615U 22052T   23307.92649946  .00002009  00000-0  14428-3 0  9997,2 52615  53.2155 170.2807 0001362  80.6457 279.4689 15.08845657 81439,6917.863,95.437,540.67,538.786,0.0
52615.0,STARLINK-4011,PAYLOAD,2023-11-04 07:46:28,15.08840891,0.0001355,53.216,168.496,83.423,276.6917,6.6581e-05,7.72e-06,0.0,0 STARLINK-4011,1 52615U 22052T   23308.32394072  .00000772  00000-0  66581-4 0  9992,2 52615  53.2160 168.4960 0001355  83.4230 276.6917 15.08840891 81490,6917.878,95.437,540.68,538.805,0.0
52615.0,STARLINK-4011,PAYLOAD,2023-11-04 20:29:33,15.08840478,0.0001431,53.2156,166.1184,85.5342,274.5814,0.00010256,1.345e-05,0.0,0 STARLINK-4011,1 52615U 22052T   23308.85386345  .00001345  00000-0  10256-3 0  9998,2 52615  53.2156 166.1184 0001431  85.5342 274.5814 15.08840478 81955,6917.879,95.438,540.734,538.754,0.0
52615.0,STARLINK-4011,PAYLOAD,2023-11-04 22:04:56,15.08842383,0.0001418,53.2158,165.8211,82.1916,277.9237,0.00012911,1.768e-05,0.0,0 STARLINK-4011,1 52615U 22052T   23308.92010264  .00001768  00000-0  12911-3 0  9999,2 52615  53.2158 165.8211 0001418  82.1916 277.9237 15.08842383 81581,6917.873,95.437,540.719,538.757,0.0
52615.0,STARLINK-4011,PAYLOAD,2023-11-05 07:37:15,15.08847016,0.0001392,53.2152,164.0374,96.7225,263.3925,0.00020858,3.034e-05,0.0,0 STARLINK-4011,1 52615U 22052T   23309.31753966  .00003034  00000-0  20858-3 0  9993,2 52615  53.2152 164.0374 0001392  96.7225 263.3925 15.08847016 81649,6917.859,95.437,540.687,538.761,0.0
52615.0,STARLINK-4011,PAYLOAD,2023-11-05 20:20:19,15.08858648,0.0001576,53.2153,161.6568,112.5128,247.6032,0.00023143,3.399e-05,0.0,0 STARLINK-4011,1 52615U 22052T   23309.84745259  .00003399  00000-0  23143-3 0  9991,2 52615  53.2153 161.6568 0001576 112.5128 247.6032 15.08858648 82100,6917.823,95.436,540.779,538.598,0.0
52615.0,STARLINK-4011,PAYLOAD,2023-11-05 21:55:42,15.0887202,0.0001508,53.2154,161.3589,92.9283,267.1882,0.0008169,0.00012748,0.0,0 STARLINK-4011,1 52615U 22052T   23309.91369141  .00012748  00000-0  81690-3 0  9990,2 52615  53.2154 161.3589 0001508  92.9283 267.1882 15.08872020 81737,6917.783,95.436,540.691,538.604,0.0
52615.0,STARLINK-4011,PAYLOAD,2023-11-05 23:31:05,15.08880729,0.0001497,53.2156,161.0607,93.6852,266.4311,0.0012551,0.00019766,0.0,0 STARLINK-4011,1 52615U 22052T   23309.97992971  .00019766  00000-0  12551-2 0  9995,2 52615  53.2156 161.0607 0001497  93.6852 266.4311 15.08880729 82122,6917.756,95.435,540.656,538.585,0.0
52615.0,STARLINK-4011,PAYLOAD,2023-11-06 07:28:00,15.08893866,0.0001487,53.2152,159.575,94.4204,265.6958,0.0014459,0.00022832,0.0,0 STARLINK-4011,1 52615U 22052T   23310.31112018  .00022832  00000-0  14459-2 0  9998,2 52615  53.2152 159.5750 0001487  94.4204 265.6958 15.08893866 81794,6917.716,95.434,540.609,538.552,0.0
52615.0,STARLINK-4011,PAYLOAD,2023-11-06 18:35:43,15.08817844,0.0001996,53.2146,157.4958,65.8008,294.3192,-0.0011972,-0.0001928,0.0,0 STARLINK-4011,1 52615U 22052T   23310.77481451 -.00019280  00000-0 -11972-2 0  9990,2 52615  53.2146 157.4958 0001996  65.8008 294.3192 15.08817844 82245,6917.948,95.439,541.194,538.432,0.0
52615.0,STARLINK-4011,PAYLOAD,2023-11-06 20:11:07,15.08807005,0.0001598,53.2149,157.1977,80.3218,279.7955,-0.0015886,-0.00025459,0.0,0 STARLINK-4011,1 52615U 22052T   23310.84105548 -.00025459  00000-0 -15886-2 0  9991,2 52615  53.2149 157.1977 0001598  80.3218 279.7955 15.08807005 81879,6917.981,95.44,540.952,538.741,0.0
52615.0,STARLINK-4011,PAYLOAD,2023-11-07 07:18:50,15.08799276,0.0001578,53.2154,155.1141,88.75,271.3673,-0.00034247,-5.728e-05,0.0,0 STARLINK-4011,1 52615U 22052T   23311.30474913 -.00005728  00000-0 -34247-3 0  9998,2 52615  53.2154 155.1141 0001578  88.7500 271.3673 15.08799276 82326,6918.005,95.44,540.962,538.778,0.0
52615.0,STARLINK-4011,PAYLOAD,2023-11-07 20:01:56,15.08808014,0.0001757,53.2154,152.7379,70.2819,289.8363,0.001127,0.00017678,0.0,0 STARLINK-4011,1 52615U 22052T   23311.83468667  .00017678  00000-0  11270-2 0  9990,2 52615  53.2154 152.7379 0001757  70.2819 289.8363 15.08808014 82400,6917.978,95.44,541.059,538.628,0.0
52615.0,STARLINK-4011,PAYLOAD,2023-11-08 19:52:43,15.08850351,0.0001888,53.2145,148.2807,58.8085,301.3092,0.0016821,0.00026592,0.0,0 STARLINK-4011,1 52615U 22052T   23312.82828348  .00026592  00000-0  16821-2 0  9998,2 52615  53.2145 148.2807 0001888  58.8085 301.3092 15.08850351 82554,6917.849,95.437,541.02,538.408,0.0
52615.0,STARLINK-4011,PAYLOAD,2023-11-09 16:32:43,15.08872171,0.000178,53.2151,144.4161,64.0297,296.0878,0.0010374,0.00016275,0.0,0 STARLINK-4011,1 52615U 22052T   23313.68939728  .00016275  00000-0  10374-2 0  9992,2 52615  53.2151 144.4161 0001780  64.0297 296.0878 15.08872171 82687,6917.782,95.436,540.878,538.416,0.0
52615.0,STARLINK-4011,PAYLOAD,2023-11-09 19:43:30,15.08856433,0.00018,53.2153,143.8188,67.6159,292.5023,0.0007582,0.00011805,0.0,0 STARLINK-4011,1 52615U 22052T   23313.82187640  .00011805  00000-0  75820-3 0  9998,2 52615  53.2153 143.8188 0001800  67.6159 292.5023 15.08856433 82709,6917.83,95.437,540.94,538.45,0.0
52615.0,STARLINK-4011,PAYLOAD,2023-11-10 13:12:44,15.08851621,0.0002043,53.2155,140.5451,74.733,285.3888,5.4907e-05,5.86e-06,0.0,0 STARLINK-4011,1 52615U 22052T   23314.55050961  .00000586  00000-0  54907-4 0  9992,2 52615  53.2155 140.5451 0002043  74.7330 285.3888 15.08851621 82431,6917.845,95.437,541.123,538.297,0.0
52615.0,STARLINK-4011,PAYLOAD,2023-11-10 19:34:16,15.08852022,0.0001757,53.215,139.355,78.7864,281.3326,1.7919e-05,-3e-08,0.0,0 STARLINK-4011,1 52615U 22052T   23314.81546862 -.00000003  00000-0  17919-4 0  9998,2 52615  53.2150 139.3550 0001757  78.7864 281.3326 15.08852022 82854,6917.844,95.437,540.924,538.493,0.0
52615.0,STARLINK-4011,PAYLOAD,2023-11-11 19:25:03,15.08846405,0.0001706,53.2162,134.8948,79.3707,280.7478,-1.3529e-05,-5.03e-06,0.0,0 STARLINK-4011,1 52615U 22052T   23315.80907190 -.00000503  00000-0 -13529-4 0  9992,2 52615  53.2162 134.8948 0001706  79.3707 280.7478 15.08846405 83002,6917.861,95.437,540.906,538.546,0.0
52615.0,STARLINK-4011,PAYLOAD,2023-11-12 04:57:22,15.08846041,0.0001731,53.2162,133.1098,78.6016,281.517,-3.0286e-05,-7.7e-06,0.0,0 STARLINK-4011,1 52615U 22052T   23316.20651033 -.00000770  00000-0 -30286-4 0  9994,2 52615  53.2162 133.1098 0001731  78.6016 281.5170 15.08846041 82680,6917.862,95.437,540.924,538.529,0.0
